     3.04           N: GNSS NAV DATA    E: GALILEO          RINEX VERSION / TYPE
CHC                 CHC                 20221020 113151 UTC PGM / RUN BY / DATE 
    18                                                      LEAP SECONDS        
                                                            END OF HEADER       
E01 2022 10 20 10 50  0 -5.49984979443D-04 -7.34701188776D-12  0.00000000000D+00
      1.00000000000D+00  3.23125000000D+01  3.19549024785D-09  1.16133081852D+00
      1.55903398991D-06  2.53872014582D-04  4.07174229622D-06  5.44060549545D+03
      3.84600000000D+05 -2.42143869400D-08 -2.19880982066D+00 -1.30385160446D-08
      9.71919027689D-01  2.56125000000D+02 -9.77123178817D-01 -5.73131016064D-09
     -6.82171272315D-11  1.00000000000D+00  2.23200000000D+03  0.00000000000D+00
      3.27670000000D+04  0.00000000000D+00  4.65661287308D-10  4.65661287308D-10
      3.87180000000D+05  0.00000000000D+00  0.00000000000D+00  0.00000000000D+00
E04 2022 10 20 10 50  0 -1.14062917419D-03 -8.18545231596D-12  0.00000000000D+00
      1.00000000000D+00 -1.10000000000D+02  3.17334646833D-09 -6.16125694280D-01
     -5.15952706337D-06  5.32835256308D-05  9.49762761593D-06  5.44062886047D+03
      3.84600000000D+05 -1.30385160446D-08  1.98451832688D+00  1.11758708954D-08
      9.57055784392D-01  1.34093750000D+02  2.06732862609D+00 -5.55951729050D-09
     -2.32152527227D-10  1.00000000000D+00  2.23200000000D+03  0.00000000000D+00
      3.27670000000D+04  0.00000000000D+00 -2.79396772385D-09 -3.02679836750D-09
      3.87180000000D+05  0.00000000000D+00  0.00000000000D+00  0.00000000000D+00
E07 2022 10 20  9 50  0 -7.14741880074D-04 -3.06954461848D-12  0.00000000000D+00
      1.23000000000D+02 -1.17000000000D+02  3.21013371495D-09  2.84551853129D+00
     -5.48362731934D-06  1.55630288646D-04  8.51228833199D-06  5.44063364601D+03
      3.81000000000D+05  5.58793544769D-09  1.98449075380D+00 -2.23517417908D-08
      9.57057020558D-01  1.55625000000D+02  5.01890582009D-01 -5.63666336108D-09
     -2.65368196508D-10  1.00000000000D+00  2.23200000000D+03  0.00000000000D+00
      3.27670000000D+04  0.00000000000D+00  5.82076609135D-09  6.28642737865D-09
      3.87180000000D+05  0.00000000000D+00  0.00000000000D+00  0.00000000000D+00
E10 2022 10 20  9 50  0 -4.84957359731D-04 -2.70006239589D-12  0.00000000000D+00
      1.23000000000D+02  9.90937500000D+01  2.55082053763D-09  1.03981142021D-01
      4.71808016300D-06  3.22578591295D-04  7.38166272640D-06  5.44060471153D+03
      3.81000000000D+05  2.79396772385D-08 -1.17139317723D-01 -1.49011611938D-08
      9.98810623352D-01  2.01781250000D+02  2.62582750197D+00 -5.39093883996D-09
      3.53943314588D-10  1.00000000000D+00  2.23200000000D+03  0.00000000000D+00
      3.27670000000D+04  0.00000000000D+00  2.32830643654D-10  9.31322574615D-10
      3.87180000000D+05  0.00000000000D+00  0.00000000000D+00  0.00000000000D+00
E12 2022 10 20  9 30  0 -2.32114107348D-04 -2.06057393370D-11  0.00000000000D+00
      1.21000000000D+02  9.80625000000D+01  2.60975156377D-09  2.74131442300D+00
      4.60445880890D-06  1.06811872683D-04  7.46920704842D-06  5.44061269569D+03
      3.79800000000D+05  1.67638063431D-08 -1.12992181961D-01 -8.75443220139D-08
      9.95811098546D-01  1.99875000000D+02  2.28615843408D-01 -5.44058376501D-09
      3.60014996070D-10  1.00000000000D+00  2.23200000000D+03  0.00000000000D+00
      3.27670000000D+04  0.00000000000D+00 -1.02445483208D-08 -1.02445483208D-08
      3.87180000000D+05  0.00000000000D+00  0.00000000000D+00  0.00000000000D+00
E19 2022 10 20 10 50  0 -4.21703205211D-03  1.01152863863D-10  0.00000000000D+00
      1.00000000000D+00 -1.13093750000D+02  3.06119893979D-09 -2.86082718048D-01
     -5.45568764210D-06  9.86607046798D-05  9.27597284317D-06  5.44062341690D+03
      3.84600000000D+05  5.58793544769D-09  1.98700072038D+00  9.31322574615D-09
      9.62684497753D-01  1.43718750000D+02  2.61375973274D+00 -5.51094383865D-09
     -2.92155026572D-10  1.00000000000D+00  2.23200000000D+03  0.00000000000D+00
      3.27670000000D+04  0.00000000000D+00 -3.95812094212D-09 -3.72529029846D-09
      3.87180000000D+05  0.00000000000D+00  0.00000000000D+00  0.00000000000D+00
E27 2022 10 20 10 10  0 -4.19729796704D-04 -9.02389274415D-12  0.00000000000D+00
      1.25000000000D+02  3.35937500000D+01  3.28442252367D-09  2.27130815808D+00
      1.51246786118D-06  3.32829309627D-04  3.94321978092D-06  5.44061266708D+03
      3.82200000000D+05  2.23517417908D-08 -2.20178951854D+00 -2.04890966415D-08
      9.71479754351D-01  2.60812500000D+02 -8.62130939146D-01 -5.75988277938D-09
     -3.89301930274D-11  1.00000000000D+00  2.23200000000D+03  0.00000000000D+00
      3.27670000000D+04  0.00000000000D+00  2.09547579288D-09  2.32830643654D-09
      3.87180000000D+05  0.00000000000D+00  0.00000000000D+00  0.00000000000D+00
E33 2022 10 20  7 40  0 -4.54866094515D-04 -3.97903932026D-13  0.00000000000D+00
      1.10000000000D+02  9.75312500000D+01  2.50796160952D-09 -1.32072795570D+00
      4.53926622868D-06  1.45583297126D-04  7.24755227566D-06  5.44060404205D+03
      3.73200000000D+05  4.84287738800D-08 -1.15320394140D-01  5.02914190292D-08
      9.98925226891D-01  2.03812500000D+02 -2.01399370358D+00 -5.33129349834D-09
      2.86440502825D-10  1.00000000000D+00  2.23200000000D+03  0.00000000000D+00
      3.27670000000D+04  0.00000000000D+00 -3.02679836750D-09 -3.49245965481D-09
      3.87180000000D+05  0.00000000000D+00  0.00000000000D+00  0.00000000000D+00
E01 2022 10 20 11 40  0 -5.50006690901D-04 -7.33280103304D-12  0.00000000000D+00
      6.00000000000D+00  3.30937500000D+01  3.20691929535D-09  1.53284083677D+00
      1.64657831192D-06  2.53837904893D-04  4.10154461861D-06  5.44060572433D+03
      3.87600000000D+05 -1.49011611938D-08 -2.19882703774D+00 -1.49011611938D-08
      9.71918796548D-01  2.55937500000D+02 -9.76704528235D-01 -5.73523889572D-09
     -6.39312344211D-11  0.00000000000D+00  2.23200000000D+03  0.00000000000D+00
      3.27670000000D+04  0.00000000000D+00  4.65661287308D-10  4.65661287308D-10
      3.88440000000D+05  0.00000000000D+00  0.00000000000D+00  0.00000000000D+00
E01 2022 10 20 11 40  0 -5.50006865524D-04 -7.33280103304D-12  0.00000000000D+00
      6.00000000000D+00  3.30937500000D+01  3.20691929535D-09  1.53284083677D+00
      1.64657831192D-06  2.53837904893D-04  4.10154461861D-06  5.44060572433D+03
      3.87600000000D+05 -1.49011611938D-08 -2.19882703774D+00 -1.49011611938D-08
      9.71918796548D-01  2.55937500000D+02 -9.76704528235D-01 -5.73523889572D-09
     -6.39312344211D-11  1.00000000000D+00  2.23200000000D+03  0.00000000000D+00
      3.27670000000D+04  0.00000000000D+00  4.65661287308D-10  4.65661287308D-10
      3.88500000000D+05  0.00000000000D+00  0.00000000000D+00  0.00000000000D+00
E04 2022 10 20 11 30  0 -1.14064873196D-03 -8.17124146124D-12  0.00000000000D+00
      5.00000000000D+00 -1.03750000000D+02  3.20120477160D-09 -3.16734889462D-01
     -4.90620732307D-06  5.24545321241D-05  9.41008329391D-06  5.44062720108D+03
      3.87000000000D+05 -1.49011611938D-08  1.98450497629D+00  1.11758708954D-08
      9.57055227020D-01  1.36343750000D+02  2.06547636260D+00 -5.55844581729D-09
     -2.31438211759D-10  0.00000000000D+00  2.23200000000D+03  0.00000000000D+00
      3.27670000000D+04  0.00000000000D+00 -2.79396772385D-09 -3.02679836750D-09
      3.88500000000D+05  0.00000000000D+00  0.00000000000D+00  0.00000000000D+00
E19 2022 10 20 11 40  0 -4.21672948869D-03  1.01124442153D-10  0.00000000000D+00
      6.00000000000D+00 -1.14062500000D+02  3.05941315112D-09  7.88179533470D-02
     -5.50597906113D-06  9.99888870865D-05  8.64639878273D-06  5.44062641907D+03
      3.87600000000D+05 -3.16649675369D-08  1.98698429035D+00  1.11758708954D-08
      9.62683473711D-01  1.55406250000D+02  2.62078429085D+00 -5.53880214191D-09
     -2.92869342041D-10  0.00000000000D+00  2.23200000000D+03  0.00000000000D+00
      3.27670000000D+04  0.00000000000D+00 -3.95812094212D-09 -3.72529029846D-09
      3.88500000000D+05  0.00000000000D+00  0.00000000000D+00  0.00000000000D+00
E04 2022 10 20 11 30  0 -1.14064861555D-03 -8.15703060653D-12  0.00000000000D+00
      5.00000000000D+00 -1.03750000000D+02  3.20120477160D-09 -3.16734889462D-01
     -4.90620732307D-06  5.24545321241D-05  9.41008329391D-06  5.44062720108D+03
      3.87000000000D+05 -1.49011611938D-08  1.98450497629D+00  1.11758708954D-08
      9.57055227020D-01  1.36343750000D+02  2.06547636260D+00 -5.55844581729D-09
     -2.31438211759D-10  1.00000000000D+00  2.23200000000D+03  0.00000000000D+00
      3.27670000000D+04  0.00000000000D+00 -2.79396772385D-09 -3.02679836750D-09
      3.88560000000D+05  0.00000000000D+00  0.00000000000D+00  0.00000000000D+00
E19 2022 10 20 11 40  0 -4.21672902303D-03  1.01138653008D-10  0.00000000000D+00
      6.00000000000D+00 -1.14062500000D+02  3.05941315112D-09  7.88179533470D-02
     -5.50597906113D-06  9.99888870865D-05  8.64639878273D-06  5.44062641907D+03
      3.87600000000D+05 -3.16649675369D-08  1.98698429035D+00  1.11758708954D-08
      9.62683473711D-01  1.55406250000D+02  2.62078429085D+00 -5.53880214191D-09
     -2.92869342041D-10  1.00000000000D+00  2.23200000000D+03  0.00000000000D+00
      3.27670000000D+04  0.00000000000D+00 -3.95812094212D-09 -3.72529029846D-09
      3.88560000000D+05  0.00000000000D+00  0.00000000000D+00  0.00000000000D+00
E14 2022 10 20 11 40  0  3.30203911290D-05  1.08428821477D-11  0.00000000000D+00
      6.00000000000D+00  5.20312500000D+01  1.98543984440D-09 -2.35715063882D+00
      2.84984707832D-06  1.61411338951D-01  9.86643135548D-06  5.28938191986D+03
      3.87600000000D+05  3.80724668503D-06 -1.01296323517D+00  2.12341547012D-06
      8.76327144463D-01  1.23906250000D+02  2.25695091621D+00 -2.72047046137D-09
     -4.97877881469D-10  1.00000000000D+00  2.23200000000D+03  0.00000000000D+00
      3.27670000000D+04  1.00000000000D+00 -2.79396772385D-09 -3.49245965481D-09
      3.88860000000D+05  0.00000000000D+00  0.00000000000D+00  0.00000000000D+00
